{
  "type": "FeatureCollection",
  "features": [
    {
      "type": "Feature",
      "properties": {
        "norad_id": 36036,
        "name": "SMOS",
        "group": "resource",
        "lat": 34.56576355962549,
        "lon": -6.773028088030136,
        "alt_km": 756.6990602611149,
        "timestamp": "2025-12-08T05:48:08.704335+00:00",
        "meta_object_name": "SMOS",
        "meta_object_id": "2009-059A",
        "meta_epoch": "2025-12-07T22:27:35.779392",
        "meta_mean_motion": 14.39734512,
        "meta_eccentricity": 0.0001121,
        "meta_inclination": 98.4384,
        "meta_ra_of_asc_node": 167.0554,
        "meta_arg_of_pericenter": 84.9572,
        "meta_mean_anomaly": 275.1744,
        "meta_ephemeris_type": 0,
        "meta_classification_type": "U",
        "meta_norad_cat_id": 36036,
        "meta_element_set_no": 999,
        "meta_rev_at_epoch": 84593,
        "meta_bstar": 0.00021657186,
        "meta_mean_motion_dot": 6.35e-06,
        "meta_mean_motion_ddot": 0,
        "tle_line1": "1 36036U 09059A   25341.93583078  .00000635  00000+0  21657-3 0  9996",
        "tle_line2": "2 36036  98.4384 167.0554 0001121  84.9572 275.1744 14.39734512845932"
      },
      "geometry": {
        "type": "Point",
        "coordinates": [
          -6.773028088030136,
          34.56576355962549
        ]
      }
    },
    {
      "type": "Feature",
      "properties": {
        "norad_id": 36110,
        "name": "YAOGAN-7",
        "group": "resource",
        "lat": 73.77152363083584,
        "lon": -164.99965282570764,
        "alt_km": 641.9569530071767,
        "timestamp": "2025-12-08T05:48:08.704345+00:00",
        "meta_object_name": "YAOGAN-7",
        "meta_object_id": "2009-069A",
        "meta_epoch": "2025-12-07T22:57:34.978176",
        "meta_mean_motion": 14.77720894,
        "meta_eccentricity": 0.00235361,
        "meta_inclination": 98.0303,
        "meta_ra_of_asc_node": 223.7306,
        "meta_arg_of_pericenter": 297.5639,
        "meta_mean_anomaly": 62.318,
        "meta_ephemeris_type": 0,
        "meta_classification_type": "U",
        "meta_norad_cat_id": 36110,
        "meta_element_set_no": 999,
        "meta_rev_at_epoch": 86138,
        "meta_bstar": 0.00016678581,
        "meta_mean_motion_dot": 1.147e-05,
        "meta_mean_motion_ddot": 0,
        "tle_line1": "1 36110U 09069A   25341.95665484  .00001147  00000+0  16679-3 0  9991",
        "tle_line2": "2 36110  98.0303 223.7306 0023536 297.5639  62.3180 14.77720894861384"
      },
      "geometry": {
        "type": "Point",
        "coordinates": [
          -164.99965282570764,
          73.77152363083584
        ]
      }
    },
    {
      "type": "Feature",
      "properties": {
        "norad_id": 36605,
        "name": "TANDEM-X",
        "group": "resource",
        "lat": 11.600487452572803,
        "lon": -13.849835348099722,
        "alt_km": 509.51421863618,
        "timestamp": "2025-12-08T05:48:08.704356+00:00",
        "meta_object_name": "TANDEM-X",
        "meta_object_id": "2010-030A",
        "meta_epoch": "2025-12-07T13:56:33.880416",
        "meta_mean_motion": 15.19154618,
        "meta_eccentricity": 0.00020407,
        "meta_inclination": 97.4453,
        "meta_ra_of_asc_node": 347.0372,
        "meta_arg_of_pericenter": 90.9544,
        "meta_mean_anomaly": 269.1924,
        "meta_ephemeris_type": 0,
        "meta_classification_type": "U",
        "meta_norad_cat_id": 36605,
        "meta_element_set_no": 999,
        "meta_rev_at_epoch": 85755,
        "meta_bstar": 0.00016903556,
        "meta_mean_motion_dot": 3.485e-05,
        "meta_mean_motion_ddot": 0,
        "tle_line1": "1 36605U 10030A   25341.58094769  .00003485  00000+0  16904-3 0  9999",
        "tle_line2": "2 36605  97.4453 347.0372 0002040  90.9544 269.1924 15.19154618857551"
      },
      "geometry": {
        "type": "Point",
        "coordinates": [
          -13.849835348099722,
          11.600487452572803
        ]
      }
    },
    {
      "type": "Feature",
      "properties": {
        "norad_id": 36795,
        "name": "CARTOSAT-2B",
        "group": "resource",
        "lat": -13.697243420526174,
        "lon": 33.3292606857415,
        "alt_km": 640.060298855281,
        "timestamp": "2025-12-08T05:48:08.704366+00:00",
        "meta_object_name": "CARTOSAT-2B",
        "meta_object_id": "2010-035A",
        "meta_epoch": "2025-12-07T21:44:42.197280",
        "meta_mean_motion": 14.7877769,
        "meta_eccentricity": 0.00129106,
        "meta_inclination": 97.7859,
        "meta_ra_of_asc_node": 31.0934,
        "meta_arg_of_pericenter": 91.9022,
        "meta_mean_anomaly": 268.3668,
        "meta_ephemeris_type": 0,
        "meta_classification_type": "U",
        "meta_norad_cat_id": 36795,
        "meta_element_set_no": 999,
        "meta_rev_at_epoch": 83158,
        "meta_bstar": 0.00017646478,
        "meta_mean_motion_dot": 1.248e-05,
        "meta_mean_motion_ddot": 0,
        "tle_line1": "1 36795U 10035A   25341.90604395  .00001248  00000+0  17646-3 0  9991",
        "tle_line2": "2 36795  97.7859  31.0934 0012910  91.9022 268.3668 14.78777690831583"
      },
      "geometry": {
        "type": "Point",
        "coordinates": [
          33.3292606857415,
          -13.697243420526174
        ]
      }
    },
    {
      "type": "Feature",
      "properties": {
        "norad_id": 36834,
        "name": "YAOGAN-10",
        "group": "resource",
        "lat": -27.52307816430921,
        "lon": 6.252783187726165,
        "alt_km": 621.1105671435962,
        "timestamp": "2025-12-08T05:48:08.704377+00:00",
        "meta_object_name": "YAOGAN-10",
        "meta_object_id": "2010-038A",
        "meta_epoch": "2025-12-07T23:42:59.023296",
        "meta_mean_motion": 14.84579078,
        "meta_eccentricity": 0.00015044,
        "meta_inclination": 97.9142,
        "meta_ra_of_asc_node": 1.8443,
        "meta_arg_of_pericenter": 85.0898,
        "meta_mean_anomaly": 332.7785,
        "meta_ephemeris_type": 0,
        "meta_classification_type": "U",
        "meta_norad_cat_id": 36834,
        "meta_element_set_no": 999,
        "meta_rev_at_epoch": 82883,
        "meta_bstar": 0.00029793085,
        "meta_mean_motion_dot": 2.461e-05,
        "meta_mean_motion_ddot": 0,
        "tle_line1": "1 36834U 10038A   25341.98818314  .00002461  00000+0  29793-3 0  9998",
        "tle_line2": "2 36834  97.9142   1.8443 0001504  85.0898 332.7785 14.84579078828833"
      },
      "geometry": {
        "type": "Point",
        "coordinates": [
          6.252783187726165,
          -27.52307816430921
        ]
      }
    },
    {
      "type": "Feature",
      "properties": {
        "norad_id": 37216,
        "name": "COSMO-SKYMED 4",
        "group": "resource",
        "lat": -64.12182192128364,
        "lon": -179.77535801143637,
        "alt_km": 630.5353040424761,
        "timestamp": "2025-12-08T05:48:08.704387+00:00",
        "meta_object_name": "COSMO-SKYMED 4",
        "meta_object_id": "2010-060A",
        "meta_epoch": "2025-12-07T21:59:43.012320",
        "meta_mean_motion": 14.8215912,
        "meta_eccentricity": 0.00013665,
        "meta_inclination": 97.8813,
        "meta_ra_of_asc_node": 163.3125,
        "meta_arg_of_pericenter": 82.9619,
        "meta_mean_anomaly": 277.175,
        "meta_ephemeris_type": 0,
        "meta_classification_type": "U",
        "meta_norad_cat_id": 37216,
        "meta_element_set_no": 999,
        "meta_rev_at_epoch": 81623,
        "meta_bstar": 0.00012332412,
        "meta_mean_motion_dot": 9.3e-06,
        "meta_mean_motion_ddot": 0,
        "tle_line1": "1 37216U 10060A   25341.91647005  .00000930  00000+0  12332-3 0  9998",
        "tle_line2": "2 37216  97.8813 163.3125 0001366  82.9619 277.1750 14.82159120816231"
      },
      "geometry": {
        "type": "Point",
        "coordinates": [
          -179.77535801143637,
          -64.12182192128364
        ]
      }
    },
    {
      "type": "Feature",
      "properties": {
        "norad_id": 37387,
        "name": "RESOURCESAT-2",
        "group": "resource",
        "lat": 20.75171925289561,
        "lon": -130.82605714663245,
        "alt_km": 821.0592080566048,
        "timestamp": "2025-12-08T05:48:08.704397+00:00",
        "meta_object_name": "RESOURCESAT-2",
        "meta_object_id": "2011-015A",
        "meta_epoch": "2025-12-07T22:18:04.697856",
        "meta_mean_motion": 14.21594207,
        "meta_eccentricity": 0.00066407,
        "meta_inclination": 98.7883,
        "meta_ra_of_asc_node": 45.5025,
        "meta_arg_of_pericenter": 55.0428,
        "meta_mean_anomaly": 305.1372,
        "meta_ephemeris_type": 0,
        "meta_classification_type": "U",
        "meta_norad_cat_id": 37387,
        "meta_element_set_no": 999,
        "meta_rev_at_epoch": 75900,
        "meta_bstar": 0.00014472055,
        "meta_mean_motion_dot": 2.73e-06,
        "meta_mean_motion_ddot": 0,
        "tle_line1": "1 37387U 11015A   25341.92922104  .00000273  00000+0  14472-3 0  9992",
        "tle_line2": "2 37387  98.7883  45.5025 0006640  55.0428 305.1372 14.21594207759001"
      },
      "geometry": {
        "type": "Point",
        "coordinates": [
          -130.82605714663245,
          20.75171925289561
        ]
      }
    }
  ]
}